[{"OBJECT_NAME":"STARLINK-4312","OBJECT_ID":"2022-077Y","EPOCH":"2026-03-09T22:37:33.331296","MEAN_MOTION":15.01259749,"ECCENTRICITY":0.00020696,"INCLINATION":97.6015,"RA_OF_ASC_NODE":250.4555,"ARG_OF_PERICENTER":194.3253,"MEAN_ANOMALY":165.7913,"EPHEMERIS_TYPE":0,"CLASSIFICATION_TYPE":"U","NORAD_CAT_ID":53065,"ELEMENT_SET_NO":999,"REV_AT_EPOCH":20095,"BSTAR":4.464884e-6,"MEAN_MOTION_DOT":-1.0e-8,"MEAN_MOTION_DDOT":0},{"OBJECT_NAME":"HAWK-9B","OBJECT_ID":"2024-066J","EPOCH":"2026-03-09T10:21:05.061312","MEAN_MOTION":14.9877824,"ECCENTRICITY":0.00037519,"INCLINATION":45.6215,"RA_OF_ASC_NODE":73.5456,"ARG_OF_PERICENTER":229.3903,"MEAN_ANOMALY":130.6652,"EPHEMERIS_TYPE":0,"CLASSIFICATION_TYPE":"U","NORAD_CAT_ID":59450,"ELEMENT_SET_NO":999,"REV_AT_EPOCH":10486,"BSTAR":0.00023214291,"MEAN_MOTION_DOT":2.608e-5,"MEAN_MOTION_DDOT":0}]
